0 SL-12 R/B(2)
1 20394U 89101D   13279.36406659 -.00000030  00000-0  10000-3 0  8928
2 20394 014.9540 018.9299 0013972 101.7934 258.3685 00.98247830 73624
0 SL-12 R/B(2)
1 20394U 89101D   13281.39965013 -.00000069  00000-0  10000-3 0  8931
2 20394 014.9561 018.9082 0013933 101.5002 258.6591 00.98248454 73642
0 SL-12 R/B(2)
1 20394U 89101D   13285.47077227 -.00000179  00000-0  10000-3 0  8948
2 20394 014.9600 018.8662 0013707 101.6604 258.4904 00.98249962 73682
0 SL-12 R/B(2)
1 20394U 89101D   13290.55956678 -.00000237  00000-0  10000-3 0  8955
2 20394 014.9652 018.8128 0013678 101.8247 258.3041 00.98250443 73731
0 SL-12 R/B(2)
1 20394U 89101D   13290.55959052  .00000000  00000-0  10000-3 0  8962
2 20394 014.9663 018.8130 0012984 105.0368 255.0892 00.98246283 73730
0 SL-12 R/B(2)
1 20394U 89101D   13291.57734663 -.00000227  00000-0  10000-3 0  8966
2 20394 014.9662 018.8022 0013380 103.4313 256.6942 00.98250166 73741
